{
"type": "FeatureCollection",
"name": "acto_8-9-26",
"crs": { "type": "name", "properties": { "name": "urn:ogc:def:crs:OGC:1.3:CRS84" } },
"features": [
{ "type": "Feature", "properties": { "fid": 1, "parcela": "8", "nomenclatura": "07G043800000800000000", "esq_med": "Medial", "estado_terreno": "Baldio", "superficie": "281,25", "desig_oficila": "C:VII S:G M:438 P:8", "manzana": "438" }, "geometry": { "type": "MultiPolygon", "coordinates": [ [ [ [ -69.282423016624037, -51.662753427047697, 0.0 ], [ -69.282748135979801, -51.662749641523071, 0.0 ], [ -69.28275151808775, -51.662861969811402, 0.0 ], [ -69.282426397928418, -51.662865755346552, 0.0 ], [ -69.282423016624037, -51.662753427047697, 0.0 ] ] ] ] } },
{ "type": "Feature", "properties": { "fid": 2, "parcela": "8", "nomenclatura": "07G044100000800000000", "esq_med": "Medial", "estado_terreno": "Baldio", "superficie": "312,5", "desig_oficila": "C:VII S:G M:441 P:8", "manzana": "441" }, "geometry": { "type": "MultiPolygon", "coordinates": [ [ [ [ -69.279204570996058, -51.662678484827936, 0.0 ], [ -69.279565814461264, -51.662674288532806, 0.0 ], [ -69.279569188694254, -51.662786616925956, 0.0 ], [ -69.279207944336179, -51.662790813232711, 0.0 ], [ -69.279204570996058, -51.662678484827936, 0.0 ] ] ] ] } },
{ "type": "Feature", "properties": { "fid": 3, "parcela": "3", "nomenclatura": "07G046400000300000000", "esq_med": "Medial", "estado_terreno": "Baldio", "superficie": "281,25", "desig_oficila": "C:VII S:G M:464 P:3", "manzana": "464" }, "geometry": { "type": "MultiPolygon", "coordinates": [ [ [ [ -69.282143198250367, -51.664262410717242, 0.0 ], [ -69.282468328432017, -51.664258625951774, 0.0 ], [ -69.282471709975013, -51.664370954220068, 0.0 ], [ -69.28214657898971, -51.664374738996024, 0.0 ], [ -69.282143198250367, -51.664262410717242, 0.0 ] ] ] ] } },
{ "type": "Feature", "properties": { "fid": 4, "parcela": "15", "nomenclatura": "07G046500001500000000", "esq_med": "Medial", "estado_terreno": "Baldio", "superficie": "312,5", "desig_oficila": "C:VII S:G M:465 P:15", "manzana": "465" }, "geometry": { "type": "MultiPolygon", "coordinates": [ [ [ [ -69.281568568206325, -51.664381465264633, 0.0 ], [ -69.281929824967179, -51.664377261680045, 0.0 ], [ -69.281933205188551, -51.664489589963559, 0.0 ], [ -69.281571947534758, -51.664493793559792, 0.0 ], [ -69.281568568206325, -51.664381465264633, 0.0 ] ] ] ] } },
{ "type": "Feature", "properties": { "fid": 5, "parcela": "15", "nomenclatura": "07G047700001500000000", "esq_med": "Medial", "estado_terreno": "Baldio", "superficie": "343,75", "desig_oficila": "C:VII S:G M:477 P:15", "manzana": "477" }, "geometry": { "type": "MultiPolygon", "coordinates": [ [ [ [ -69.276654363052515, -51.665607158304944, 0.0 ], [ -69.277051755799093, -51.66560255092211, 0.0 ], [ -69.277055124060595, -51.665714879340072, 0.0 ], [ -69.276657730331706, -51.665719486735661, 0.0 ], [ -69.276654363052515, -51.665607158304944, 0.0 ] ] ] ] } },
{ "type": "Feature", "properties": { "fid": 6, "parcela": "9", "nomenclatura": "07G048500000900000000", "esq_med": "Esquina", "estado_terreno": "Baldio", "superficie": "304,5", "desig_oficila": "C:VII S:G M:485 P:9", "manzana": "485" }, "geometry": { "type": "MultiPolygon", "coordinates": [ [ [ [ -69.280266691034015, -51.666756323393301, 0.0 ], [ -69.280447328138962, -51.666754223737804, 0.0 ], [ -69.280454081887711, -51.66697888030437, 0.0 ], [ -69.280331248261092, -51.666980308105792, 0.0 ], [ -69.280272363443004, -51.666945034934272, 0.0 ], [ -69.280266691034015, -51.666756323393301, 0.0 ] ] ] ] } },
{ "type": "Feature", "properties": { "fid": 7, "parcela": "10", "nomenclatura": "07G049000001000000000", "esq_med": "Esquina", "estado_terreno": "Baldio", "superficie": "295,75", "desig_oficila": "C:VII S:G M:490 P:10", "manzana": "490" }, "geometry": { "type": "MultiPolygon", "coordinates": [ [ [ [ -69.275953415178748, -51.666828850155646, 0.0 ], [ -69.276148504665159, -51.666826589668865, 0.0 ], [ -69.27615348684877, -51.66699284015602, 0.0 ], [ -69.276096759506757, -51.667029455061225, 0.0 ], [ -69.275959473699615, -51.66703104574831, 0.0 ], [ -69.275953415178748, -51.666828850155646, 0.0 ] ] ] ] } },
{ "type": "Feature", "properties": { "fid": 8, "parcela": "2", "nomenclatura": "07G050800000200000000", "esq_med": "Esquina", "estado_terreno": "Baldio", "superficie": "304,5", "desig_oficila": "C:VII S:G M:508 P:2", "manzana": "508" }, "geometry": { "type": "MultiPolygon", "coordinates": [ [ [ [ -69.285247904414746, -51.668959163159911, 0.0 ], [ -69.28530462677972, -51.66892254386957, 0.0 ], [ -69.285608112496234, -51.668919003237669, 0.0 ], [ -69.285611502085786, -51.669031331314891, 0.0 ], [ -69.28525020872479, -51.669035546275019, 0.0 ], [ -69.285247904414746, -51.668959163159911, 0.0 ] ] ] ] } },
{ "type": "Feature", "properties": { "fid": 9, "parcela": "3", "nomenclatura": "07G050800000300000000", "esq_med": "Medial", "estado_terreno": "Baldio", "superficie": "312,5", "desig_oficila": "C:VII S:G M:508 P:3", "manzana": "508" }, "geometry": { "type": "MultiPolygon", "coordinates": [ [ [ [ -69.28525020872479, -51.669035546275019, 0.0 ], [ -69.285611502085786, -51.669031331314891, 0.0 ], [ -69.2856148916932, -51.669143659389874, 0.0 ], [ -69.285253597430369, -51.669147874361776, 0.0 ], [ -69.28525020872479, -51.669035546275019, 0.0 ] ] ] ] } },
{ "type": "Feature", "properties": { "fid": 10, "parcela": "13", "nomenclatura": "07G050800001300000000", "esq_med": "Medial", "estado_terreno": "Baldio", "superficie": "312,5", "desig_oficila": "C:VII S:G M:508 P:13", "manzana": "508" }, "geometry": { "type": "MultiPolygon", "coordinates": [ [ [ [ -69.285628450301473, -51.669592971666894, 0.0 ], [ -69.285989748076048, -51.66958875553685, 0.0 ], [ -69.285993138657332, -51.669701083588812, 0.0 ], [ -69.28581248934708, -51.669703191798419, 0.0 ], [ -69.285631839998203, -51.66970529973046, 0.0 ], [ -69.285628450301473, -51.669592971666894, 0.0 ] ] ] ] } },
{ "type": "Feature", "properties": { "fid": 11, "parcela": "14", "nomenclatura": "07G050900001400000000", "esq_med": "Medial", "estado_terreno": "Baldio", "superficie": "312,5", "desig_oficila": "C:VII S:G M:509 P:14", "manzana": "509" }, "geometry": { "type": "MultiPolygon", "coordinates": [ [ [ [ -69.284613429913392, -51.669492442809961, 0.0 ], [ -69.284974727003402, -51.669488229802838, 0.0 ], [ -69.28497811506584, -51.669600557889837, 0.0 ], [ -69.284616817091262, -51.669604770908563, 0.0 ], [ -69.284613429913392, -51.669492442809961, 0.0 ] ] ] ] } },
{ "type": "Feature", "properties": { "fid": 12, "parcela": "7", "nomenclatura": "07G051200000700000000", "esq_med": "Medial", "estado_terreno": "Baldio", "superficie": "312,5", "desig_oficila": "C:VII S:G M:512 P:7", "manzana": "512" }, "geometry": { "type": "MultiPolygon", "coordinates": [ [ [ [ -69.287322323806535, -51.670629451304336, 0.0 ], [ -69.287683629094531, -51.670625229958993, 0.0 ], [ -69.287687024182517, -51.67073755793291, 0.0 ], [ -69.287325717978419, -51.670741779290218, 0.0 ], [ -69.287322323806535, -51.670629451304336, 0.0 ] ] ] ] } },
{ "type": "Feature", "properties": { "fid": 13, "parcela": "15", "nomenclatura": "07G051500001500000000", "esq_med": "Esquina", "estado_terreno": "Baldio", "superficie": "304,5", "desig_oficila": "C:VII S:G M:515 P:15", "manzana": "515" }, "geometry": { "type": "MultiPolygon", "coordinates": [ [ [ [ -69.284672371105898, -51.67144695123698, 0.0 ], [ -69.285033683773221, -51.671442738025938, 0.0 ], [ -69.285035988026635, -51.671519121081673, 0.0 ], [ -69.284979262162864, -51.671555740261461, 0.0 ], [ -69.284675758815396, -51.671559279293319, 0.0 ], [ -69.284672371105898, -51.67144695123698, 0.0 ] ] ] ] } },
{ "type": "Feature", "properties": { "fid": 14, "parcela": "10", "nomenclatura": "07G051700001000000000", "esq_med": "Esquina", "estado_terreno": "Baldio", "superficie": "304,5", "desig_oficila": "C:VII S:G M:517 P:10", "manzana": "517" }, "geometry": { "type": "MultiPolygon", "coordinates": [ [ [ [ -69.286300403759569, -51.672695464971817, 0.0 ], [ -69.286298097409343, -51.672619081545065, 0.0 ], [ -69.286659418641236, -51.672614863327098, 0.0 ], [ -69.286662811143074, -51.672727191298613, 0.0 ], [ -69.286359300093011, -51.67273073469169, 0.0 ], [ -69.286300403759569, -51.672695464971817, 0.0 ] ] ] ] } },
{ "type": "Feature", "properties": { "fid": 15, "parcela": "1", "nomenclatura": "07G053400000100000000", "esq_med": "Esquina", "estado_terreno": "Baldio", "superficie": "304,5", "desig_oficila": "C:VII S:G M:534 P:1", "manzana": "534" }, "geometry": { "type": "MultiPolygon", "coordinates": [ [ [ [ -69.287826914537291, -51.675365468506946, 0.0 ], [ -69.288130443068027, -51.675361921296535, 0.0 ], [ -69.288189344938971, -51.675397190466192, 0.0 ], [ -69.288191654618046, -51.675473573415999, 0.0 ], [ -69.28783031015962, -51.675477796387163, 0.0 ], [ -69.287826914537291, -51.675365468506946, 0.0 ] ] ] ] } },
{ "type": "Feature", "properties": { "fid": 16, "parcela": "18", "nomenclatura": "07G053600001800000000", "esq_med": "Medial", "estado_terreno": "Baldio", "superficie": "312,5", "desig_oficila": "C:VII S:G M:536 P:18", "manzana": "536" }, "geometry": { "type": "MultiPolygon", "coordinates": [ [ [ [ -69.285806779296252, -51.67550142449317, 0.0 ], [ -69.286168124155466, -51.675497207746012, 0.0 ], [ -69.286171515753722, -51.675609535677083, 0.0 ], [ -69.285810169932773, -51.675613752436746, 0.0 ], [ -69.285806779296252, -51.67550142449317, 0.0 ] ] ] ] } },
{ "type": "Feature", "properties": { "fid": 17, "parcela": "15", "nomenclatura": "07G053600001500000000", "esq_med": "Medial", "estado_terreno": "Baldio", "superficie": "312,5", "desig_oficila": "C:VII S:G M:536 P:15", "manzana": "536" }, "geometry": { "type": "MultiPolygon", "coordinates": [ [ [ [ -69.285816951259463, -51.675838408316999, 0.0 ], [ -69.286178299003851, -51.675834191532338, 0.0 ], [ -69.286181690655752, -51.675946519456524, 0.0 ], [ -69.285820341949616, -51.675950736253732, 0.0 ], [ -69.285816951259463, -51.675838408316999, 0.0 ] ] ] ] } },
{ "type": "Feature", "properties": { "fid": 18, "parcela": "1", "nomenclatura": "07G053700000100000000", "esq_med": "Esquina", "estado_terreno": "Baldio", "superficie": "304,5", "desig_oficila": "C:VII S:G M:537 P:1", "manzana": "537" }, "geometry": { "type": "MultiPolygon", "coordinates": [ [ [ [ -69.28479162639492, -51.675400897479769, 0.0 ], [ -69.285095155430383, -51.675397358111532, 0.0 ], [ -69.285154054995701, -51.675432628806469, 0.0 ], [ -69.285156359571047, -51.675509011823223, 0.0 ], [ -69.284795014511744, -51.675513225458388, 0.0 ], [ -69.28479162639492, -51.675400897479769, 0.0 ] ] ] ] } },
{ "type": "Feature", "properties": { "fid": 19, "parcela": "4", "nomenclatura": "07G053700000400000000", "esq_med": "Medial", "estado_terreno": "Baldio", "superficie": "312,5", "desig_oficila": "C:VII S:G M:537 P:4", "manzana": "537" }, "geometry": { "type": "MultiPolygon", "coordinates": [ [ [ [ -69.284437056853818, -51.675629765967436, 0.0 ], [ -69.28479840264643, -51.675625553434706, 0.0 ], [ -69.284801790798966, -51.675737881408757, 0.0 ], [ -69.284440444181044, -51.675742093952394, 0.0 ], [ -69.284437056853818, -51.675629765967436, 0.0 ] ] ] ] } },
{ "type": "Feature", "properties": { "fid": 20, "parcela": "16", "nomenclatura": "07G053700001600000000", "esq_med": "Medial", "estado_terreno": "Baldio", "superficie": "312,5", "desig_oficila": "C:VII S:G M:537 P:16", "manzana": "537" }, "geometry": { "type": "MultiPolygon", "coordinates": [ [ [ [ -69.284801790798966, -51.675737881408757, 0.0 ], [ -69.285163137781737, -51.675733667748617, 0.0 ], [ -69.285166526913883, -51.675845995707881, 0.0 ], [ -69.284805178969364, -51.675850209380521, 0.0 ], [ -69.284801790798966, -51.675737881408757, 0.0 ] ] ] ] } },
{ "type": "Feature", "properties": { "fid": 21, "parcela": "5", "nomenclatura": "07G053700000500000000", "esq_med": "Medial", "estado_terreno": "Baldio", "superficie": "312,5", "desig_oficila": "C:VII S:G M:537 P:5", "manzana": "537" }, "geometry": { "type": "MultiPolygon", "coordinates": [ [ [ [ -69.284440444181044, -51.675742093952394, 0.0 ], [ -69.284801790798966, -51.675737881408757, 0.0 ], [ -69.284805178969364, -51.675850209380521, 0.0 ], [ -69.284443831526119, -51.675854421935057, 0.0 ], [ -69.284440444181044, -51.675742093952394, 0.0 ] ] ] ] } },
{ "type": "Feature", "properties": { "fid": 22, "parcela": "15", "nomenclatura": "07G053700001500000000", "esq_med": "Medial", "estado_terreno": "Baldio", "superficie": "312,5", "desig_oficila": "C:VII S:G M:537 P:15", "manzana": "537" }, "geometry": { "type": "MultiPolygon", "coordinates": [ [ [ [ -69.284805178969364, -51.675850209380521, 0.0 ], [ -69.285166526913883, -51.675845995707881, 0.0 ], [ -69.285169916063879, -51.675958323664872, 0.0 ], [ -69.284808567157611, -51.675962537350024, 0.0 ], [ -69.284805178969364, -51.675850209380521, 0.0 ] ] ] ] } },
{ "type": "Feature", "properties": { "fid": 23, "parcela": "14", "nomenclatura": "07G053700001400000000", "esq_med": "Medial", "estado_terreno": "Baldio", "superficie": "312,5", "desig_oficila": "C:VII S:G M:537 P:14", "manzana": "537" }, "geometry": { "type": "MultiPolygon", "coordinates": [ [ [ [ -69.284808567157611, -51.675962537350024, 0.0 ], [ -69.285169916063879, -51.675958323664872, 0.0 ], [ -69.285173305231737, -51.67607065161959, 0.0 ], [ -69.284811955363736, -51.676074865317233, 0.0 ], [ -69.284808567157611, -51.675962537350024, 0.0 ] ] ] ] } },
{ "type": "Feature", "properties": { "fid": 24, "parcela": "13", "nomenclatura": "07G053700001300000000", "esq_med": "Medial", "estado_terreno": "Baldio", "superficie": "312,5", "desig_oficila": "C:VII S:G M:537 P:13", "manzana": "537" }, "geometry": { "type": "MultiPolygon", "coordinates": [ [ [ [ -69.284811955363736, -51.676074865317233, 0.0 ], [ -69.285173305231737, -51.67607065161959, 0.0 ], [ -69.285176694417444, -51.676182979572019, 0.0 ], [ -69.284815343587681, -51.676187193282146, 0.0 ], [ -69.284811955363736, -51.676074865317233, 0.0 ] ] ] ] } },
{ "type": "Feature", "properties": { "fid": 25, "parcela": "8", "nomenclatura": "07G053700000800000000", "esq_med": "Medial", "estado_terreno": "Baldio", "superficie": "312,5", "desig_oficila": "C:VII S:G M:537 P:8", "manzana": "537" }, "geometry": { "type": "MultiPolygon", "coordinates": [ [ [ [ -69.2844506062698, -51.676079077893561, 0.0 ], [ -69.284811955363736, -51.676074865317233, 0.0 ], [ -69.284815343587681, -51.676187193282146, 0.0 ], [ -69.284453993668421, -51.676191405869389, 0.0 ], [ -69.2844506062698, -51.676079077893561, 0.0 ] ] ] ] } },
{ "type": "Feature", "properties": { "fid": 26, "parcela": "2", "nomenclatura": "07G054000000200000000", "esq_med": "Esquina", "estado_terreno": "Baldio", "superficie": "304,5", "desig_oficila": "C:VII S:G M:540 P:2", "manzana": "540" }, "geometry": { "type": "MultiPolygon", "coordinates": [ [ [ [ -69.281540606626805, -51.67547471507168, 0.0 ], [ -69.281597340130261, -51.675438097580582, 0.0 ], [ -69.281900869695392, -51.675434566465391, 0.0 ], [ -69.281904250664098, -51.675546894537455, 0.0 ], [ -69.281542905126258, -51.675551098167823, 0.0 ], [ -69.281540606626805, -51.67547471507168, 0.0 ] ] ] ] } },
{ "type": "Feature", "properties": { "fid": 27, "parcela": "6", "nomenclatura": "07G054000000600000000", "esq_med": "Medial", "estado_terreno": "Baldio", "superficie": "312,5", "desig_oficila": "C:VII S:G M:540 P:6", "manzana": "540" }, "geometry": { "type": "MultiPolygon", "coordinates": [ [ [ [ -69.281553045663244, -51.675888082402899, 0.0 ], [ -69.281914393677042, -51.675883878739938, 0.0 ], [ -69.281917774716959, -51.675996206802893, 0.0 ], [ -69.281556425877852, -51.676000410476718, 0.0 ], [ -69.281553045663244, -51.675888082402899, 0.0 ] ] ] ] } },
{ "type": "Feature", "properties": { "fid": 28, "parcela": "12", "nomenclatura": "07G054000001200000000", "esq_med": "Medial", "estado_terreno": "Baldio", "superficie": "312,5", "desig_oficila": "C:VII S:G M:540 P:12", "manzana": "540" }, "geometry": { "type": "MultiPolygon", "coordinates": [ [ [ [ -69.281924536850255, -51.676220862921902, 0.0 ], [ -69.282285888250769, -51.676216658103456, 0.0 ], [ -69.28228927030591, -51.676328986147091, 0.0 ], [ -69.281927917943634, -51.676333190978013, 0.0 ], [ -69.281924536850255, -51.676220862921902, 0.0 ] ] ] ] } },
{ "type": "Feature", "properties": { "fid": 29, "parcela": "10", "nomenclatura": "07G054000001000000000", "esq_med": "Esquina", "estado_terreno": "Baldio", "superficie": "304,5", "desig_oficila": "C:VII S:G M:540 P:10", "manzana": "540" }, "geometry": { "type": "MultiPolygon", "coordinates": [ [ [ [ -69.28156656662847, -51.676337394684431, 0.0 ], [ -69.281927917943634, -51.676333190978013, 0.0 ], [ -69.281931299054804, -51.676445519031816, 0.0 ], [ -69.281627763375468, -51.67644905022771, 0.0 ], [ -69.281568865220891, -51.676413777768666, 0.0 ], [ -69.28156656662847, -51.676337394684431, 0.0 ] ] ] ] } },
{ "type": "Feature", "properties": { "fid": 30, "parcela": "18", "nomenclatura": "07G049600001800000000", "esq_med": "Medial", "estado_terreno": "Baldio", "superficie": "331,25", "desig_oficila": "C:VII S:G M:496 P:18", "manzana": "496" }, "geometry": { "type": "MultiPolygon", "coordinates": [ [ [ [ -69.278670602683647, -51.667291758501513, 0.0 ], [ -69.279053559703556, -51.66728731207958, 0.0 ], [ -69.279056933056452, -51.667399640400163, 0.0 ], [ -69.278673975089859, -51.667404086834388, 0.0 ], [ -69.278670602683647, -51.667291758501513, 0.0 ] ] ] ] } },
{ "type": "Feature", "properties": { "fid": 31, "parcela": "05", "nomenclatura": "5,00077E+19", "esq_med": "Medial", "estado_terreno": "Baldio", "superficie": "343,75", "desig_oficila": "C:05 M:77 P:05", "manzana": "77" }, "geometry": { "type": "MultiPolygon", "coordinates": [ [ [ [ -69.244197049216311, -51.669701153154925, 0.0 ], [ -69.244200851682393, -51.669813476252095, 0.0 ], [ -69.243803529393944, -51.669818676041643, 0.0 ], [ -69.243799727168295, -51.669706352940132, 0.0 ], [ -69.244197049216311, -51.669701153154925, 0.0 ] ] ] ] } },
{ "type": "Feature", "properties": { "fid": 32, "parcela": "05", "nomenclatura": "5,00077E+19", "esq_med": "Medial", "estado_terreno": "Baldio", "superficie": "343,75", "desig_oficila": "C:05 M:77 P:05", "manzana": "77" }, "geometry": { "type": "MultiPolygon", "coordinates": [ [ [ [ -69.244197049216311, -51.669701153154925, 0.0 ], [ -69.244200851682393, -51.669813476252095, 0.0 ], [ -69.243803529393944, -51.669818676041643, 0.0 ], [ -69.243799727168295, -51.669706352940132, 0.0 ], [ -69.244197049216311, -51.669701153154925, 0.0 ] ] ] ] } },
{ "type": "Feature", "properties": { "fid": 33, "parcela": "05", "nomenclatura": "5,00077E+19", "esq_med": "Medial", "estado_terreno": "Baldio", "superficie": "343,75", "desig_oficila": "C:05 M:77 P:05", "manzana": "77" }, "geometry": { "type": "MultiPolygon", "coordinates": [ [ [ [ -69.244197049216311, -51.669701153154925, 0.0 ], [ -69.244200851682393, -51.669813476252095, 0.0 ], [ -69.243803529393944, -51.669818676041643, 0.0 ], [ -69.243799727168295, -51.669706352940132, 0.0 ], [ -69.244197049216311, -51.669701153154925, 0.0 ] ] ] ] } },
{ "type": "Feature", "properties": { "fid": 34, "parcela": "05", "nomenclatura": "5,00077E+19", "esq_med": "Medial", "estado_terreno": "Baldio", "superficie": "343,75", "desig_oficila": "C:05 M:77 P:05", "manzana": "77" }, "geometry": { "type": "MultiPolygon", "coordinates": [ [ [ [ -69.244197049216311, -51.669701153154925, 0.0 ], [ -69.244200851682393, -51.669813476252095, 0.0 ], [ -69.243803529393944, -51.669818676041643, 0.0 ], [ -69.243799727168295, -51.669706352940132, 0.0 ], [ -69.244197049216311, -51.669701153154925, 0.0 ] ] ] ] } },
{ "type": "Feature", "properties": { "fid": 35, "parcela": "07", "nomenclatura": "5,00076E+19", "esq_med": "Medial", "estado_terreno": "Baldio", "superficie": "312,5", "desig_oficila": "C:05 M:76 P:07", "manzana": "76" }, "geometry": { "type": "MultiPolygon", "coordinates": [ [ [ [ -69.245006752423379, -51.66991529811996, 0.0 ], [ -69.245002947213095, -51.669802975063178, 0.0 ], [ -69.24536418450586, -51.669798243884763, 0.0 ], [ -69.245367989867347, -51.669910566938483, 0.0 ], [ -69.245006752423379, -51.66991529811996, 0.0 ] ] ] ] } },
{ "type": "Feature", "properties": { "fid": 36, "parcela": "07", "nomenclatura": "5,00076E+19", "esq_med": "Medial", "estado_terreno": "Baldio", "superficie": "312,5", "desig_oficila": "C:05 M:76 P:07", "manzana": "76" }, "geometry": { "type": "MultiPolygon", "coordinates": [ [ [ [ -69.245006752423379, -51.66991529811996, 0.0 ], [ -69.245002947213095, -51.669802975063178, 0.0 ], [ -69.24536418450586, -51.669798243884763, 0.0 ], [ -69.245367989867347, -51.669910566938483, 0.0 ], [ -69.245006752423379, -51.66991529811996, 0.0 ] ] ] ] } },
{ "type": "Feature", "properties": { "fid": 37, "parcela": "07", "nomenclatura": "5,00076E+19", "esq_med": "Medial", "estado_terreno": "Baldio", "superficie": "312,5", "desig_oficila": "C:05 M:76 P:07", "manzana": "76" }, "geometry": { "type": "MultiPolygon", "coordinates": [ [ [ [ -69.245006752423379, -51.66991529811996, 0.0 ], [ -69.245002947213095, -51.669802975063178, 0.0 ], [ -69.24536418450586, -51.669798243884763, 0.0 ], [ -69.245367989867347, -51.669910566938483, 0.0 ], [ -69.245006752423379, -51.66991529811996, 0.0 ] ] ] ] } },
{ "type": "Feature", "properties": { "fid": 38, "parcela": "07", "nomenclatura": "5,00076E+19", "esq_med": "Medial", "estado_terreno": "Baldio", "superficie": "312,5", "desig_oficila": "C:05 M:76 P:07", "manzana": "76" }, "geometry": { "type": "MultiPolygon", "coordinates": [ [ [ [ -69.245006752423379, -51.66991529811996, 0.0 ], [ -69.245002947213095, -51.669802975063178, 0.0 ], [ -69.24536418450586, -51.669798243884763, 0.0 ], [ -69.245367989867347, -51.669910566938483, 0.0 ], [ -69.245006752423379, -51.66991529811996, 0.0 ] ] ] ] } },
{ "type": "Feature", "properties": { "fid": 39, "parcela": "21", "nomenclatura": "5,0007E+19", "esq_med": "Medial", "estado_terreno": "Baldio", "superficie": "312,5", "desig_oficila": "C:05 M:70 P:21", "manzana": "70" }, "geometry": { "type": "MultiPolygon", "coordinates": [ [ [ [ -69.239759753933527, -51.668567996883027, 0.0 ], [ -69.2397559625649, -51.668455673604065, 0.0 ], [ -69.240117667699067, -51.668450952334275, 0.0 ], [ -69.240121401791811, -51.668563276359883, 0.0 ], [ -69.239759753933527, -51.668567996883027, 0.0 ] ] ] ] } },
{ "type": "Feature", "properties": { "fid": 40, "parcela": "21", "nomenclatura": "5,0007E+19", "esq_med": "Medial", "estado_terreno": "Baldio", "superficie": "312,5", "desig_oficila": "C:05 M:70 P:21", "manzana": "70" }, "geometry": { "type": "MultiPolygon", "coordinates": [ [ [ [ -69.239759753933527, -51.668567996883027, 0.0 ], [ -69.2397559625649, -51.668455673604065, 0.0 ], [ -69.240117667699067, -51.668450952334275, 0.0 ], [ -69.240121401791811, -51.668563276359883, 0.0 ], [ -69.239759753933527, -51.668567996883027, 0.0 ] ] ] ] } },
{ "type": "Feature", "properties": { "fid": 41, "parcela": "21", "nomenclatura": "5,0007E+19", "esq_med": "Medial", "estado_terreno": "Baldio", "superficie": "312,5", "desig_oficila": "C:05 M:70 P:21", "manzana": "70" }, "geometry": { "type": "MultiPolygon", "coordinates": [ [ [ [ -69.239759753933527, -51.668567996883027, 0.0 ], [ -69.2397559625649, -51.668455673604065, 0.0 ], [ -69.240117667699067, -51.668450952334275, 0.0 ], [ -69.240121401791811, -51.668563276359883, 0.0 ], [ -69.239759753933527, -51.668567996883027, 0.0 ] ] ] ] } },
{ "type": "Feature", "properties": { "fid": 42, "parcela": "21", "nomenclatura": "5,0007E+19", "esq_med": "Medial", "estado_terreno": "Baldio", "superficie": "312,5", "desig_oficila": "C:05 M:70 P:21", "manzana": "70" }, "geometry": { "type": "MultiPolygon", "coordinates": [ [ [ [ -69.239759753933527, -51.668567996883027, 0.0 ], [ -69.2397559625649, -51.668455673604065, 0.0 ], [ -69.240117667699067, -51.668450952334275, 0.0 ], [ -69.240121401791811, -51.668563276359883, 0.0 ], [ -69.239759753933527, -51.668567996883027, 0.0 ] ] ] ] } },
{ "type": "Feature", "properties": { "fid": 43, "parcela": "1", "nomenclatura": "07G051300000100000000", "esq_med": "Esquina", "estado_terreno": "Baldio", "superficie": "304,5", "desig_oficila": "C:VII S:G M:513 P:1", "manzana": "513" }, "geometry": { "type": "MultiPolygon", "coordinates": [ [ [ [ -69.286766792741417, -51.670186469292368, 0.0 ], [ -69.286889635561494, -51.670185034740079, 0.0 ], [ -69.286948529376588, -51.670220304356775, 0.0 ], [ -69.286954230041857, -51.670409015558548, 0.0 ], [ -69.286773578323803, -51.670411125246048, 0.0 ], [ -69.286766792741417, -51.670186469292368, 0.0 ] ] ] ] } },
{ "type": "Feature", "properties": { "fid": 44, "parcela": "1", "nomenclatura": "07G053600000100000000", "esq_med": "Esquina", "estado_terreno": "Baldio", "superficie": "304,5", "desig_oficila": "C:VII S:G M:536 P:1", "manzana": "536" }, "geometry": { "type": "MultiPolygon", "coordinates": [ [ [ [ -69.285803388677593, -51.675389096547313, 0.0 ], [ -69.28610691754497, -51.675385554565025, 0.0 ], [ -69.286165817878853, -51.675420824751555, 0.0 ], [ -69.286168124155466, -51.675497207746012, 0.0 ], [ -69.285806779296252, -51.67550142449317, 0.0 ], [ -69.285803388677593, -51.675389096547313, 0.0 ] ] ] ] } },
{ "type": "Feature", "properties": { "fid": 45, "parcela": "5", "nomenclatura": "07G053600000500000000", "esq_med": "Medial", "estado_terreno": "Baldio", "superficie": "312,5", "desig_oficila": "C:VII S:G M:536 P:5", "manzana": "536" }, "geometry": { "type": "MultiPolygon", "coordinates": [ [ [ [ -69.285452214169283, -51.675730296033656, 0.0 ], [ -69.285813560587187, -51.67572608037802, 0.0 ], [ -69.285816951259463, -51.675838408316999, 0.0 ], [ -69.285455604016263, -51.675842623983584, 0.0 ], [ -69.285452214169283, -51.675730296033656, 0.0 ] ] ] ] } },
{ "type": "Feature", "properties": { "fid": 46, "parcela": "10", "nomenclatura": "07G053700001000000000", "esq_med": "Esquina", "estado_terreno": "Baldio", "superficie": "304,5", "desig_oficila": "C:VII S:G M:537 P:10", "manzana": "537" }, "geometry": { "type": "MultiPolygon", "coordinates": [ [ [ [ -69.284457381084891, -51.67630373384295, 0.0 ], [ -69.284818731829503, -51.6762995212448, 0.0 ], [ -69.284822120089174, -51.676411849205174, 0.0 ], [ -69.284518584889156, -51.676415387870115, 0.0 ], [ -69.284459684538305, -51.676380116863633, 0.0 ], [ -69.284457381084891, -51.67630373384295, 0.0 ] ] ] ] } },
{ "type": "Feature", "properties": { "fid": 47, "parcela": "16", "nomenclatura": "07G054100001600000000", "esq_med": "Medial", "estado_terreno": "Baldio", "superficie": "312,5", "desig_oficila": "C:VII S:G M:541 P:16", "manzana": "541" }, "geometry": { "type": "MultiPolygon", "coordinates": [ [ [ [ -69.280902618540054, -51.675895646201432, 0.0 ], [ -69.281263967254731, -51.675891444532418, 0.0 ], [ -69.28126734675449, -51.676003772615545, 0.0 ], [ -69.280905997078079, -51.676007974296994, 0.0 ], [ -69.280902618540054, -51.675895646201432, 0.0 ] ] ] ] } },
{ "type": "Feature", "properties": { "fid": 48, "parcela": "9", "nomenclatura": "07G054100000900000000", "esq_med": "Medial", "estado_terreno": "Baldio", "superficie": "312,5", "desig_oficila": "C:VII S:G M:541 P:9", "manzana": "541" }, "geometry": { "type": "MultiPolygon", "coordinates": [ [ [ [ -69.280548025770074, -51.676124502962914, 0.0 ], [ -69.280909375633883, -51.676120302390288, 0.0 ], [ -69.280912754207492, -51.676232630481287, 0.0 ], [ -69.280732078626329, -51.676234730914835, 0.0 ], [ -69.280551403518331, -51.676236831064791, 0.0 ], [ -69.280548025770074, -51.676124502962914, 0.0 ] ] ] ] } },
{ "type": "Feature", "properties": { "fid": 49, "parcela": "10", "nomenclatura": "07G054100001000000000", "esq_med": "Esquina", "estado_terreno": "Baldio", "superficie": "304,5", "desig_oficila": "C:VII S:G M:541 P:10", "manzana": "541" }, "geometry": { "type": "MultiPolygon", "coordinates": [ [ [ [ -69.280551403518331, -51.676236831064791, 0.0 ], [ -69.280732078626329, -51.676234730914835, 0.0 ], [ -69.280738835375502, -51.676459387096514, 0.0 ], [ -69.280615975561304, -51.676460815238215, 0.0 ], [ -69.280557078175448, -51.676425542270785, 0.0 ], [ -69.280551403518331, -51.676236831064791, 0.0 ] ] ] ] } },
{ "type": "Feature", "properties": { "fid": 50, "parcela": "2", "nomenclatura": "07G044200000200000000", "esq_med": "Medial", "estado_terreno": "Baldio", "superficie": "281,25", "desig_oficila": "C:VII S:G M:442 P:2", "manzana": "442" }, "geometry": { "type": "MultiPolygon", "coordinates": [ [ [ [ -69.278538148508417, -51.662146858884682, 0.0 ], [ -69.278718768170961, -51.662144761903669, 0.0 ], [ -69.278724837953362, -51.662346953077503, 0.0 ], [ -69.278544217487251, -51.66234905006894, 0.0 ], [ -69.278538148508417, -51.662146858884682, 0.0 ] ] ] ] } },
{ "type": "Feature", "properties": { "fid": 51, "parcela": "16", "nomenclatura": "07G054000001600000000", "esq_med": "Medial", "estado_terreno": "Baldio", "superficie": "312,5", "desig_oficila": "C:VII S:G M:540 P:16", "manzana": "540" }, "geometry": { "type": "MultiPolygon", "coordinates": [ [ [ [ -69.281911012654902, -51.675771550674732, 0.0 ], [ -69.282272360208424, -51.675767345906117, 0.0 ], [ -69.282275742192283, -51.675879673958867, 0.0 ], [ -69.281914393677042, -51.675883878739938, 0.0 ], [ -69.281911012654902, -51.675771550674732, 0.0 ] ] ] ] } },
{ "type": "Feature", "properties": { "fid": 52, "parcela": "15", "nomenclatura": "07G054000001500000000", "esq_med": "Medial", "estado_terreno": "Baldio", "superficie": "312,5", "desig_oficila": "C:VII S:G M:540 P:15", "manzana": "540" }, "geometry": { "type": "MultiPolygon", "coordinates": [ [ [ [ -69.281914393677042, -51.675883878739938, 0.0 ], [ -69.282275742192283, -51.675879673958867, 0.0 ], [ -69.282279124193977, -51.675992002009352, 0.0 ], [ -69.281917774716959, -51.675996206802893, 0.0 ], [ -69.281914393677042, -51.675883878739938, 0.0 ] ] ] ] } },
{ "type": "Feature", "properties": { "fid": 53, "parcela": "14", "nomenclatura": "07G054000001400000000", "esq_med": "Medial", "estado_terreno": "Baldio", "superficie": "312,5", "desig_oficila": "C:VII S:G M:540 P:14", "manzana": "540" }, "geometry": { "type": "MultiPolygon", "coordinates": [ [ [ [ -69.281917774716959, -51.675996206802893, 0.0 ], [ -69.282279124193977, -51.675992002009352, 0.0 ], [ -69.282282506213477, -51.676104330057534, 0.0 ], [ -69.281921155774711, -51.676108534863531, 0.0 ], [ -69.281917774716959, -51.675996206802893, 0.0 ] ] ] ] } },
{ "type": "Feature", "properties": { "fid": 54, "parcela": "13", "nomenclatura": "07G054000001300000000", "esq_med": "Medial", "estado_terreno": "Baldio", "superficie": "312,5", "desig_oficila": "C:VII S:G M:540 P:13", "manzana": "540" }, "geometry": { "type": "MultiPolygon", "coordinates": [ [ [ [ -69.281921155774711, -51.676108534863531, 0.0 ], [ -69.282282506213477, -51.676104330057534, 0.0 ], [ -69.282285888250769, -51.676216658103456, 0.0 ], [ -69.281924536850255, -51.676220862921902, 0.0 ], [ -69.281921155774711, -51.676108534863531, 0.0 ] ] ] ] } },
{ "type": "Feature", "properties": { "fid": 55, "parcela": "17", "nomenclatura": "07G053700001700000000", "esq_med": "Medial", "estado_terreno": "Baldio", "superficie": "312,5", "desig_oficila": "C:VII S:G M:537 P:17", "manzana": "537" }, "geometry": { "type": "MultiPolygon", "coordinates": [ [ [ [ -69.28479840264643, -51.675625553434706, 0.0 ], [ -69.285159748667482, -51.675621339787092, 0.0 ], [ -69.285163137781737, -51.675733667748617, 0.0 ], [ -69.284801790798966, -51.675737881408757, 0.0 ], [ -69.28479840264643, -51.675625553434706, 0.0 ] ] ] ] } },
{ "type": "Feature", "properties": { "fid": 56, "parcela": "8", "nomenclatura": "07G053800000800000000", "esq_med": "Medial", "estado_terreno": "Baldio", "superficie": "281,25", "desig_oficila": "C:VII S:G M:538 P:8", "manzana": "538" }, "geometry": { "type": "MultiPolygon", "coordinates": [ [ [ [ -69.283583366121434, -51.676089183921526, 0.0 ], [ -69.283908581139443, -51.676085395045696, 0.0 ], [ -69.283911967240073, -51.676197723038591, 0.0 ], [ -69.283586751537072, -51.67620151192353, 0.0 ], [ -69.283583366121434, -51.676089183921526, 0.0 ] ] ] ] } },
{ "type": "Feature", "properties": { "fid": 57, "parcela": "3", "nomenclatura": "07G054000000300000000", "esq_med": "Medial", "estado_terreno": "Baldio", "superficie": "312,5", "desig_oficila": "C:VII S:G M:540 P:3", "manzana": "540" }, "geometry": { "type": "MultiPolygon", "coordinates": [ [ [ [ -69.281542905126258, -51.675551098167823, 0.0 ], [ -69.281904250664098, -51.675546894537455, 0.0 ], [ -69.281907631650597, -51.675659222607237, 0.0 ], [ -69.281546285287448, -51.675663426248462, 0.0 ], [ -69.281542905126258, -51.675551098167823, 0.0 ] ] ] ] } },
{ "type": "Feature", "properties": { "fid": 58, "parcela": "18", "nomenclatura": "07G054100001800000000", "esq_med": "Medial", "estado_terreno": "Baldio", "superficie": "312,5", "desig_oficila": "C:VII S:G M:541 P:18", "manzana": "541" }, "geometry": { "type": "MultiPolygon", "coordinates": [ [ [ [ -69.280895861517408, -51.675670990003439, 0.0 ], [ -69.281076534515307, -51.675668889325017, 0.0 ], [ -69.281257208308602, -51.675666788359308, 0.0 ], [ -69.281260587772749, -51.675779116447011, 0.0 ], [ -69.280899240019849, -51.675783318103576, 0.0 ], [ -69.280895861517408, -51.675670990003439, 0.0 ] ] ] ] } }
]
}
